IRIDIUM 63              
1 25286U 98021B   25329.63330219  .00000475  00000+0  15466-3 0  9991
2 25286  86.4000  14.3921 0002406  95.3124 264.8347 14.36716548447025
IRIDIUM 69              
1 25319U 98026A   25329.77385400  .00000689  00000+0  20740-3 0  9998
2 25319  86.3996  27.1098 0002458 156.3853 203.7460 14.41190476446339
IRIDIUM 71              
1 25320U 98026B   25329.69245830  .00000380  00000+0  11134-3 0  9998
2 25320  86.3994  21.8187 0000110  81.2190 278.9022 14.41303306446855
IRIDIUM 73              
1 25344U 98032C   25329.75656240  .00000766  00000+0  18477-3 0  9994
2 25344  86.4405 338.2089 0002557 105.7944 254.3544 14.51955615454001
IRIDIUM 82              
1 25467U 98051A   25329.68584764  .00047593  00000+0  93068-3 0  9992
2 25467  86.3626  29.6796 0065746  41.0059 319.6113 15.44848363448762
